start=new Date('2021-11-26T00:00:00.000Z').valueOf();
sats=[{"OBJECT_TYPE":"PAYLOAD","OBJECT_ID":"2021-017AJ","MEAN_MOTION":"15.06418732","MEAN_ANOMALY":"267.3737","CENTER_NAME":"EARTH","TIME_SYSTEM":"UTC","NORAD_CAT_ID":"47754","EPOCH":"2021-11-25T14:33:41.588640","LAUNCH_DATE":"2021-03-04","MEAN_ELEMENT_THEORY":"SGP4","CLASSIFICATION_TYPE":"U","PERIOD":"95.591","GP_ID":"190493192","INCLINATION":"53.0573","EPHEMERIS_TYPE":"0","COUNTRY_CODE":"US","PERIAPSIS":"545.921","SEMIMAJOR_AXIS":"6925.291","SITE":"AFETR","APOAPSIS":"548.391","DECAY_DATE":null,"MEAN_MOTION_DOT":"-0.00002455","REV_AT_EPOCH":"4184","TLE_LINE1":"1 47754U 21017AJ  21329.60673135 -.00002455  00000-0 -14591-3 0  9997","MEAN_MOTION_DDOT":"0.0000000000000","TLE_LINE2":"2 47754  53.0573  37.5479 0001783  92.7456 267.3737 15.06418732 41848","RCS_SIZE":"LARGE","RA_OF_ASC_NODE":"37.5479","ELEMENT_SET_NO":"999","ECCENTRICITY":"0.00017830","REF_FRAME":"TEME","OBJECT_NAME":"STARLINK-2171","FILE":"3224126","BSTAR":"-0.00014591000000","ARG_OF_PERICENTER":"92.7456"},{"CENTER_NAME":"EARTH","MEAN_ANOMALY":"284.8228","MEAN_MOTION":"15.06397489","OBJECT_ID":"2021-017AK","OBJECT_TYPE":"PAYLOAD","INCLINATION":"53.0550","GP_ID":"190493445","PERIOD":"95.592","CLASSIFICATION_TYPE":"U","LAUNCH_DATE":"2021-03-04","MEAN_ELEMENT_THEORY":"SGP4","EPOCH":"2021-11-25T14:14:26.207232","NORAD_CAT_ID":"47755","TIME_SYSTEM":"UTC","PERIAPSIS":"546.422","COUNTRY_CODE":"US","EPHEMERIS_TYPE":"0","APOAPSIS":"548.020","SITE":"AFETR","SEMIMAJOR_AXIS":"6925.356","MEAN_MOTION_DOT":"0.00000421","REV_AT_EPOCH":"4190","DECAY_DATE":null,"RCS_SIZE":"LARGE","ELEMENT_SET_NO":"999","RA_OF_ASC_NODE":"32.6213","TLE_LINE2":"2 47755  53.0550  32.6213 0001154  75.2889 284.8228 15.06397489 41905","MEAN_MOTION_DDOT":"0.0000000000000","TLE_LINE1":"1 47755U 21017AK  21329.59335888  .00000421  00000-0  47137-4 0  9998","OBJECT_NAME":"STARLINK-2172","REF_FRAME":"TEME","ECCENTRICITY":"0.00011540","ARG_OF_PERICENTER":"75.2889","BSTAR":"0.00004713700000","FILE":"3224126"},{"OBJECT_NAME":"STARLINK-2174","REF_FRAME":"TEME","ECCENTRICITY":"0.00015870","ARG_OF_PERICENTER":"64.2285","BSTAR":"0.00004346600000","FILE":"3223911","MEAN_MOTION_DOT":"0.00000366","REV_AT_EPOCH":"4186","DECAY_DATE":null,"RA_OF_ASC_NODE":"38.1653","RCS_SIZE":"LARGE","ELEMENT_SET_NO":"999","TLE_LINE2":"2 47756  53.0564  38.1653 0001587  64.2285 295.8867 15.06400373 41861","MEAN_MOTION_DDOT":"0.0000000000000","TLE_LINE1":"1 47756U 21017AL  21329.47035889  .00000366  00000-0  43466-4 0  9993","PERIAPSIS":"546.113","COUNTRY_CODE":"US","EPHEMERIS_TYPE":"0","APOAPSIS":"548.311","SITE":"AFETR","SEMIMAJOR_AXIS":"6925.347","CENTER_NAME":"EARTH","MEAN_ANOMALY":"295.8867","MEAN_MOTION":"15.06400373","OBJECT_ID":"2021-017AL","OBJECT_TYPE":"PAYLOAD","INCLINATION":"53.0564","PERIOD":"95.592","GP_ID":"190465707","CLASSIFICATION_TYPE":"U","MEAN_ELEMENT_THEORY":"SGP4","LAUNCH_DATE":"2021-03-04","EPOCH":"2021-11-25T11:17:19.008096","NORAD_CAT_ID":"47756","TIME_SYSTEM":"UTC"},{"OBJECT_TYPE":"PAYLOAD","OBJECT_ID":"2021-017AM","MEAN_ANOMALY":"290.6029","MEAN_MOTION":"15.06270278","CENTER_NAME":"EARTH","NORAD_CAT_ID":"47757","TIME_SYSTEM":"UTC","LAUNCH_DATE":"2021-03-04","MEAN_ELEMENT_THEORY":"SGP4","EPOCH":"2021-11-25T14:07:13.311264","CLASSIFICATION_TYPE":"U","INCLINATION":"53.0577","PERIOD":"95.600","GP_ID":"190492444","EPHEMERIS_TYPE":"0","COUNTRY_CODE":"US","PERIAPSIS":"546.294","APOAPSIS":"548.928","SITE":"AFETR","SEMIMAJOR_AXIS":"6925.746","DECAY_DATE":null,"REV_AT_EPOCH":"4182","MEAN_MOTION_DOT":"0.00026136","TLE_LINE1":"1 47757U 21017AM  21329.58834851  .00026136  00000-0  17732-2 0  9990","MEAN_MOTION_DDOT":"0.0000000000000","RCS_SIZE":"MEDIUM","RA_OF_ASC_NODE":"37.6335","ELEMENT_SET_NO":"999","TLE_LINE2":"2 47757  53.0577  37.6335 0001902  69.5164 290.6029 15.06270278 41820","ECCENTRICITY":"0.00019020","REF_FRAME":"TEME","OBJECT_NAME":"STARLINK-2175","FILE":"3224126","BSTAR":"0.00177320000000","ARG_OF_PERICENTER":"69.5164"},{"SEMIMAJOR_AXIS":"6925.349","SITE":"AFETR","APOAPSIS":"552.393","COUNTRY_CODE":"US","EPHEMERIS_TYPE":"0","PERIAPSIS":"542.036","EPOCH":"2021-11-25T14:12:29.981952","MEAN_ELEMENT_THEORY":"SGP4","LAUNCH_DATE":"2021-03-04","TIME_SYSTEM":"UTC","NORAD_CAT_ID":"47758","PERIOD":"95.592","GP_ID":"190492694","INCLINATION":"53.0555","CLASSIFICATION_TYPE":"U","OBJECT_TYPE":"PAYLOAD","OBJECT_ID":"2021-017AN","CENTER_NAME":"EARTH","MEAN_MOTION":"15.06399737","MEAN_ANOMALY":"308.4841","BSTAR":"-0.00002017200000","FILE":"3224126","ARG_OF_PERICENTER":"51.6819","ECCENTRICITY":"0.00074780","OBJECT_NAME":"STARLINK-2176","REF_FRAME":"TEME","TLE_LINE1":"1 47758U 21017AN  21329.59201368 -.00000585  00000-0 -20172-4 0  9999","TLE_LINE2":"2 47758  53.0555  37.6229 0007478  51.6819 308.4841 15.06399737 41880","RA_OF_ASC_NODE":"37.6229","RCS_SIZE":"LARGE","ELEMENT_SET_NO":"999","MEAN_MOTION_DDOT":"0.0000000000000","DECAY_DATE":null,"REV_AT_EPOCH":"4188","MEAN_MOTION_DOT":"-0.00000585"},{"TLE_LINE1":"1 47759U 21017AP  21328.97663281  .00012724  00000-0  18145-3 0  9999","TLE_LINE2":"2 47759  53.0550  12.2395 0003150  45.4465 314.6803 15.56715335 42171","RCS_SIZE":"LARGE","ELEMENT_SET_NO":"999","RA_OF_ASC_NODE":"12.2395","MEAN_MOTION_DDOT":"0.0000000000000","DECAY_DATE":null,"MEAN_MOTION_DOT":"0.00012724","REV_AT_EPOCH":"4217","BSTAR":"0.00018145000000","FILE":"3223911","ARG_OF_PERICENTER":"45.4465","ECCENTRICITY":"0.00031500","OBJECT_NAME":"STARLINK-2177","REF_FRAME":"TEME","EPOCH":"2021-11-24T23:26:21.074784","MEAN_ELEMENT_THEORY":"SGP4","LAUNCH_DATE":"2021-03-04","TIME_SYSTEM":"UTC","NORAD_CAT_ID":"47759","GP_ID":"190465956","PERIOD":"92.502","INCLINATION":"53.0550","CLASSIFICATION_TYPE":"U","OBJECT_TYPE":"PAYLOAD","OBJECT_ID":"2021-017AP","CENTER_NAME":"EARTH","MEAN_MOTION":"15.56715335","MEAN_ANOMALY":"314.6803","SEMIMAJOR_AXIS":"6775.308","SITE":"AFETR","APOAPSIS":"399.307","COUNTRY_CODE":"US","EPHEMERIS_TYPE":"0","PERIAPSIS":"395.039"},{"TLE_LINE1":"1 47760U 21017AQ  21329.68691085  .00002371  00000-0  17801-3 0  9998","MEAN_MOTION_DDOT":"0.0000000000000","TLE_LINE2":"2 47760  53.0599  47.1624 0001214  82.0686 278.0441 15.06400187 41732","ELEMENT_SET_NO":"999","RCS_SIZE":"LARGE","RA_OF_ASC_NODE":"47.1624","DECAY_DATE":null,"REV_AT_EPOCH":"4173","MEAN_MOTION_DOT":"0.00002371","FILE":"3224126","BSTAR":"0.00017801000000","ARG_OF_PERICENTER":"82.0686","ECCENTRICITY":"0.00012140","REF_FRAME":"TEME","OBJECT_NAME":"STARLINK-2178","TIME_SYSTEM":"UTC","NORAD_CAT_ID":"47760","EPOCH":"2021-11-25T16:29:09.097440","LAUNCH_DATE":"2021-03-04","MEAN_ELEMENT_THEORY":"SGP4","CLASSIFICATION_TYPE":"U","GP_ID":"190494195","PERIOD":"95.592","INCLINATION":"53.0599","OBJECT_ID":"2021-017AQ","OBJECT_TYPE":"PAYLOAD","MEAN_MOTION":"15.06400187","MEAN_ANOMALY":"278.0441","CENTER_NAME":"EARTH","SEMIMAJOR_AXIS":"6925.348","SITE":"AFETR","APOAPSIS":"548.054","EPHEMERIS_TYPE":"0","COUNTRY_CODE":"US","PERIAPSIS":"546.372"},{"FILE":"3223988","BSTAR":"0.00013462000000","ARG_OF_PERICENTER":"80.1815","ECCENTRICITY":"0.00012440","REF_FRAME":"TEME","OBJECT_NAME":"STARLINK-2179","TLE_LINE1":"1 47761U 21017AR  21329.58462908  .00001724  00000-0  13462-3 0  9998","MEAN_MOTION_DDOT":"0.0000000000000","TLE_LINE2":"2 47761  53.0561  37.6536 0001244  80.1815 279.9315 15.06392566 41207","ELEMENT_SET_NO":"999","RCS_SIZE":"LARGE","RA_OF_ASC_NODE":"37.6536","DECAY_DATE":null,"MEAN_MOTION_DOT":"0.00001724","REV_AT_EPOCH":"4120","SEMIMAJOR_AXIS":"6925.371","SITE":"AFETR","APOAPSIS":"548.098","EPHEMERIS_TYPE":"0","COUNTRY_CODE":"US","PERIAPSIS":"546.375","TIME_SYSTEM":"UTC","NORAD_CAT_ID":"47761","EPOCH":"2021-11-25T14:01:51.952512","MEAN_ELEMENT_THEORY":"SGP4","LAUNCH_DATE":"2021-03-04","CLASSIFICATION_TYPE":"U","GP_ID":"190468675","PERIOD":"95.593","INCLINATION":"53.0561","OBJECT_TYPE":"PAYLOAD","OBJECT_ID":"2021-017AR","MEAN_MOTION":"15.06392566","MEAN_ANOMALY":"279.9315","CENTER_NAME":"EARTH"},{"TLE_LINE1":"1 47762U 21017AS  21329.60993727 -.00001478  00000-0 -80339-4 0  9996","MEAN_MOTION_DDOT":"0.0000000000000","RA_OF_ASC_NODE":"52.5471","RCS_SIZE":"LARGE","ELEMENT_SET_NO":"999","TLE_LINE2":"2 47762  53.0554  52.5471 0001311  73.2530 286.8602 15.06413230 41642","DECAY_DATE":null,"REV_AT_EPOCH":"4164","MEAN_MOTION_DOT":"-0.00001478","FILE":"3224126","BSTAR":"-0.00008033900000","ARG_OF_PERICENTER":"73.2530","ECCENTRICITY":"0.00013110","REF_FRAME":"TEME","OBJECT_NAME":"STARLINK-2180","NORAD_CAT_ID":"47762","TIME_SYSTEM":"UTC","MEAN_ELEMENT_THEORY":"SGP4","LAUNCH_DATE":"2021-03-04","EPOCH":"2021-11-25T14:38:18.580128","CLASSIFICATION_TYPE":"U","INCLINATION":"53.0554","GP_ID":"190493193","PERIOD":"95.591","OBJECT_ID":"2021-017AS","OBJECT_TYPE":"PAYLOAD","MEAN_ANOMALY":"286.8602","MEAN_MOTION":"15.06413230","CENTER_NAME":"EARTH","APOAPSIS":"548.081","SEMIMAJOR_AXIS":"6925.308","SITE":"AFETR","EPHEMERIS_TYPE":"0","COUNTRY_CODE":"US","PERIAPSIS":"546.265"},{"DECAY_DATE":null,"REV_AT_EPOCH":"4176","MEAN_MOTION_DOT":"-0.00002194","TLE_LINE1":"1 47763U 21017AT  21329.62656599 -.00002194  00000-0 -12844-3 0  9993","TLE_LINE2":"2 47763  53.0693  42.3957 0000969  77.4436 282.6661 15.06402916 41763","ELEMENT_SET_NO":"999","RCS_SIZE":"LARGE","RA_OF_ASC_NODE":"42.3957","MEAN_MOTION_DDOT":"0.0000000000000","ECCENTRICITY":"0.00009690","OBJECT_NAME":"STARLINK-2181","REF_FRAME":"TEME","BSTAR":"-0.00012844000000","FILE":"3224126","ARG_OF_PERICENTER":"77.4436","OBJECT_ID":"2021-017AT","OBJECT_TYPE":"PAYLOAD","CENTER_NAME":"EARTH","MEAN_MOTION":"15.06402916","MEAN_ANOMALY":"282.6661","EPOCH":"2021-11-25T15:02:15.301536","MEAN_ELEMENT_THEORY":"SGP4","LAUNCH_DATE":"2021-03-04","TIME_SYSTEM":"UTC","NORAD_CAT_ID":"47763","GP_ID":"190493446","PERIOD":"95.592","INCLINATION":"53.0693","CLASSIFICATION_TYPE":"U","COUNTRY_CODE":"US","EPHEMERIS_TYPE":"0","PERIAPSIS":"546.534","SITE":"AFETR","SEMIMAJOR_AXIS":"6925.340","APOAPSIS":"547.876"}];
